0 FENGYUN 1C DEB
1 37017U 99025ECZ 13285.57608913  .00002166  00000-0  61375-3 0  1623
2 37017 098.7097 206.5321 0379080 254.6729 101.0805 14.11951867283406
0 FENGYUN 1C DEB
1 37017U 99025ECZ 13287.56031922  .00002133  00000-0  60576-3 0  1631
2 37017 098.7108 208.4689 0378547 248.9248 107.0983 14.11960051283684
0 FENGYUN 1C DEB
1 37017U 99025ECZ 13292.02476040  .00002236  00000-0  63274-3 0  1645
2 37017 098.7083 212.8114 0378994 236.4884 119.9996 14.11982234284316
0 FENGYUN 1C DEB
1 37017U 99025ECZ 13292.59166166  .00002348  00000-0  66313-3 0  1654
2 37017 098.7135 213.3695 0379131 234.3809 122.1984 14.11987130284393
0 FENGYUN 1C DEB
1 37017U 99025ECZ 13295.00101006  .00002396  00000-0  67946-3 0  1662
2 37017 098.7130 215.7239 0377719 227.4865 129.3578 14.11999318284730
